[{"OBJECT_NAME":"ONEWEB-0656","OBJECT_ID":"2023-029X","EPOCH":"2025-10-03T02:03:11.524320","MEAN_MOTION":13.20770885,"ECCENTRICITY":0.00021336,"INCLINATION":87.9248,"RA_OF_ASC_NODE":325.6934,"ARG_OF_PERICENTER":85.2325,"MEAN_ANOMALY":274.9052,"EPHEMERIS_TYPE":0,"CLASSIFICATION_TYPE":"U","NORAD_CAT_ID":55817,"ELEMENT_SET_NO":999,"REV_AT_EPOCH":12721,"BSTAR":0.00023843907,"MEAN_MOTION_DOT":1.1e-6,"MEAN_MOTION_DDOT":0},{"OBJECT_NAME":"ONEWEB-0657","OBJECT_ID":"2023-029Y","EPOCH":"2025-10-03T06:45:22.447584","MEAN_MOTION":13.19725978,"ECCENTRICITY":0.00026693,"INCLINATION":87.927,"RA_OF_ASC_NODE":356.0896,"ARG_OF_PERICENTER":98.6983,"MEAN_ANOMALY":261.4452,"EPHEMERIS_TYPE":0,"CLASSIFICATION_TYPE":"U","NORAD_CAT_ID":55818,"ELEMENT_SET_NO":999,"REV_AT_EPOCH":12502,"BSTAR":5.8327903e-5,"MEAN_MOTION_DOT":3.6e-7,"MEAN_MOTION_DDOT":0},{"OBJECT_NAME":"ONEWEB-0658","OBJECT_ID":"2023-029Z","EPOCH":"2025-10-03T06:38:30.945120","MEAN_MOTION":13.19727041,"ECCENTRICITY":0.00018676,"INCLINATION":87.9288,"RA_OF_ASC_NODE":356.0311,"ARG_OF_PERICENTER":115.5868,"MEAN_ANOMALY":244.5458,"EPHEMERIS_TYPE":0,"CLASSIFICATION_TYPE":"U","NORAD_CAT_ID":55819,"ELEMENT_SET_NO":999,"REV_AT_EPOCH":12503,"BSTAR":-0.00023528931,"MEAN_MOTION_DOT":-8.1e-7,"MEAN_MOTION_DDOT":0},{"OBJECT_NAME":"ONEWEB-0660","OBJECT_ID":"2023-029AA","EPOCH":"2025-10-03T03:40:20.442432","MEAN_MOTION":13.145024,"ECCENTRICITY":0.00015458,"INCLINATION":87.9071,"RA_OF_ASC_NODE":340.879,"ARG_OF_PERICENTER":101.1471,"MEAN_ANOMALY":258.9833,"EPHEMERIS_TYPE":0,"CLASSIFICATION_TYPE":"U","NORAD_CAT_ID":55820,"ELEMENT_SET_NO":999,"REV_AT_EPOCH":12563,"BSTAR":0.00019882572,"MEAN_MOTION_DOT":8.6e-7,"MEAN_MOTION_DDOT":0},{"OBJECT_NAME":"ONEWEB-0661","OBJECT_ID":"2023-029AB","EPOCH":"2025-10-03T04:30:35.189856","MEAN_MOTION":13.14503368,"ECCENTRICITY":0.00015127,"INCLINATION":87.9071,"RA_OF_ASC_NODE":340.9433,"ARG_OF_PERICENTER":96.901,"MEAN_ANOMALY":263.2291,"EPHEMERIS_TYPE":0,"CLASSIFICATION_TYPE":"U","NORAD_CAT_ID":55821,"ELEMENT_SET_NO":999,"REV_AT_EPOCH":12562,"BSTAR":0.00034046023,"MEAN_MOTION_DOT":1.39e-6,"MEAN_MOTION_DDOT":0},{"OBJECT_NAME":"ONEWEB-0662","OBJECT_ID":"2023-029AC","EPOCH":"2025-10-03T05:20:48.532416","MEAN_MOTION":13.14502461,"ECCENTRICITY":0.00015538,"INCLINATION":87.9063,"RA_OF_ASC_NODE":340.9414,"ARG_OF_PERICENTER":104.5674,"MEAN_ANOMALY":255.5628,"EPHEMERIS_TYPE":0,"CLASSIFICATION_TYPE":"U","NORAD_CAT_ID":55822,"ELEMENT_SET_NO":999,"REV_AT_EPOCH":12567,"BSTAR":-0.00014016196,"MEAN_MOTION_DOT":-3.9e-7,"MEAN_MOTION_DDOT":0},{"OBJECT_NAME":"ONEWEB-0663","OBJECT_ID":"2023-029AD","EPOCH":"2025-10-03T05:05:42.967968","MEAN_MOTION":13.20848078,"ECCENTRICITY":0.00015647,"INCLINATION":87.9261,"RA_OF_ASC_NODE":325.7282,"ARG_OF_PERICENTER":106.4854,"MEAN_ANOMALY":253.6451,"EPHEMERIS_TYPE":0,"CLASSIFICATION_TYPE":"U","NORAD_CAT_ID":55823,"ELEMENT_SET_NO":999,"REV_AT_EPOCH":12722,"BSTAR":-8.9102543e-5,"MEAN_MOTION_DOT":-2.3e-7,"MEAN_MOTION_DDOT":0},{"OBJECT_NAME":"ONEWEB-0664","OBJECT_ID":"2023-029AE","EPOCH":"2025-10-03T05:23:10.587840","MEAN_MOTION":13.2077249,"ECCENTRICITY":0.00016874,"INCLINATION":87.9242,"RA_OF_ASC_NODE":325.743,"ARG_OF_PERICENTER":86.6165,"MEAN_ANOMALY":273.5161,"EPHEMERIS_TYPE":0,"CLASSIFICATION_TYPE":"U","NORAD_CAT_ID":55824,"ELEMENT_SET_NO":999,"REV_AT_EPOCH":12722,"BSTAR":6.5377793e-5,"MEAN_MOTION_DOT":4.0e-7,"MEAN_MOTION_DDOT":0},{"OBJECT_NAME":"ONEWEB-0665","OBJECT_ID":"2023-029AF","EPOCH":"2025-10-03T04:26:01.291488","MEAN_MOTION":13.14503976,"ECCENTRICITY":0.00016161,"INCLINATION":87.9072,"RA_OF_ASC_NODE":340.9199,"ARG_OF_PERICENTER":104.5553,"MEAN_ANOMALY":255.5756,"EPHEMERIS_TYPE":0,"CLASSIFICATION_TYPE":"U","NORAD_CAT_ID":55825,"ELEMENT_SET_NO":999,"REV_AT_EPOCH":12564,"BSTAR":0.00051598476,"MEAN_MOTION_DOT":2.04e-6,"MEAN_MOTION_DDOT":0},{"OBJECT_NAME":"ONEWEB-0666","OBJECT_ID":"2023-029AG","EPOCH":"2025-10-03T01:35:53.903904","MEAN_MOTION":13.20773699,"ECCENTRICITY":0.00026792,"INCLINATION":87.9245,"RA_OF_ASC_NODE":325.762,"ARG_OF_PERICENTER":93.7395,"MEAN_ANOMALY":266.4044,"EPHEMERIS_TYPE":0,"CLASSIFICATION_TYPE":"U","NORAD_CAT_ID":55826,"ELEMENT_SET_NO":999,"REV_AT_EPOCH":12721,"BSTAR":0.00018804106,"MEAN_MOTION_DOT":8.9e-7,"MEAN_MOTION_DDOT":0},{"OBJECT_NAME":"ONEWEB-0667","OBJECT_ID":"2023-029AH","EPOCH":"2025-10-03T05:04:59.384352","MEAN_MOTION":13.20773555,"ECCENTRICITY":0.00017362,"INCLINATION":87.9246,"RA_OF_ASC_NODE":325.6616,"ARG_OF_PERICENTER":97.7949,"MEAN_ANOMALY":262.3381,"EPHEMERIS_TYPE":0,"CLASSIFICATION_TYPE":"U","NORAD_CAT_ID":55827,"ELEMENT_SET_NO":999,"REV_AT_EPOCH":12722,"BSTAR":0.00013078403,"MEAN_MOTION_DOT":6.6e-7,"MEAN_MOTION_DDOT":0},{"OBJECT_NAME":"ONEWEB-0669","OBJECT_ID":"2023-029AJ","EPOCH":"2025-10-03T04:58:11.623872","MEAN_MOTION":13.20771436,"ECCENTRICITY":0.00021531,"INCLINATION":87.9244,"RA_OF_ASC_NODE":325.7023,"ARG_OF_PERICENTER":78.0806,"MEAN_ANOMALY":282.0568,"EPHEMERIS_TYPE":0,"CLASSIFICATION_TYPE":"U","NORAD_CAT_ID":55828,"ELEMENT_SET_NO":999,"REV_AT_EPOCH":12722,"BSTAR":0.0001217559,"MEAN_MOTION_DOT":6.2e-7,"MEAN_MOTION_DDOT":0},{"OBJECT_NAME":"ONEWEB-0670","OBJECT_ID":"2023-029AK","EPOCH":"2025-10-03T05:43:38.651520","MEAN_MOTION":13.14501789,"ECCENTRICITY":0.00015318,"INCLINATION":87.9069,"RA_OF_ASC_NODE":340.9289,"ARG_OF_PERICENTER":92.8601,"MEAN_ANOMALY":267.2704,"EPHEMERIS_TYPE":0,"CLASSIFICATION_TYPE":"U","NORAD_CAT_ID":55829,"ELEMENT_SET_NO":999,"REV_AT_EPOCH":12567,"BSTAR":0.00063296757,"MEAN_MOTION_DOT":2.47e-6,"MEAN_MOTION_DDOT":0},{"OBJECT_NAME":"ONEWEB-0671","OBJECT_ID":"2023-029AL","EPOCH":"2025-10-03T06:31:42.020832","MEAN_MOTION":13.19725976,"ECCENTRICITY":0.00017076,"INCLINATION":87.9271,"RA_OF_ASC_NODE":356.0843,"ARG_OF_PERICENTER":100.3484,"MEAN_ANOMALY":259.7842,"EPHEMERIS_TYPE":0,"CLASSIFICATION_TYPE":"U","NORAD_CAT_ID":55830,"ELEMENT_SET_NO":999,"REV_AT_EPOCH":12501,"BSTAR":0.00019740841,"MEAN_MOTION_DOT":9.2e-7,"MEAN_MOTION_DDOT":0},{"OBJECT_NAME":"ONEWEB-0672","OBJECT_ID":"2023-029AM","EPOCH":"2025-10-03T04:51:21.942720","MEAN_MOTION":13.20771365,"ECCENTRICITY":0.00021836,"INCLINATION":87.9237,"RA_OF_ASC_NODE":325.6848,"ARG_OF_PERICENTER":93.3501,"MEAN_ANOMALY":266.7882,"EPHEMERIS_TYPE":0,"CLASSIFICATION_TYPE":"U","NORAD_CAT_ID":55831,"ELEMENT_SET_NO":999,"REV_AT_EPOCH":12722,"BSTAR":3.3887586e-5,"MEAN_MOTION_DOT":2.7e-7,"MEAN_MOTION_DDOT":0},{"OBJECT_NAME":"ONEWEB-0673","OBJECT_ID":"2023-029AN","EPOCH":"2025-10-03T05:57:35.040672","MEAN_MOTION":13.19727109,"ECCENTRICITY":0.00018433,"INCLINATION":87.9291,"RA_OF_ASC_NODE":356.0581,"ARG_OF_PERICENTER":106.8347,"MEAN_ANOMALY":253.2988,"EPHEMERIS_TYPE":0,"CLASSIFICATION_TYPE":"U","NORAD_CAT_ID":55832,"ELEMENT_SET_NO":999,"REV_AT_EPOCH":12501,"BSTAR":0.00022404724,"MEAN_MOTION_DOT":1.03e-6,"MEAN_MOTION_DDOT":0}]
