ONEWEB-0656             
1 55817U 23029X   25276.08555005  .00000110  00000+0  23844-3 0  9997
2 55817  87.9248 325.6934 0002133  85.2325 274.9052 13.20770885127215
ONEWEB-0657             
1 55818U 23029Y   25276.28150981  .00000036  00000+0  58328-4 0  9997
2 55818  87.9270 356.0896 0002669  98.6983 261.4452 13.19725978125021
ONEWEB-0658             
1 55819U 23029Z   25276.27674705 -.00000081  00000+0 -23529-3 0  9998
2 55819  87.9288 356.0311 0001867 115.5868 244.5458 13.19727041125035
ONEWEB-0660             
1 55820U 23029AA  25276.15301438  .00000086  00000+0  19883-3 0  9998
2 55820  87.9071 340.8790 0001545 101.1471 258.9833 13.14502400125630
ONEWEB-0661             
1 55821U 23029AB  25276.18790729  .00000139  00000+0  34046-3 0  9994
2 55821  87.9071 340.9433 0001512  96.9010 263.2291 13.14503368125620
ONEWEB-0662             
1 55822U 23029AC  25276.22278394 -.00000039  00000+0 -14016-3 0  9995
2 55822  87.9063 340.9414 0001553 104.5674 255.5628 13.14502461125674
ONEWEB-0663             
1 55823U 23029AD  25276.21230287 -.00000023  00000+0 -89103-4 0  9997
2 55823  87.9261 325.7282 0001564 106.4854 253.6451 13.20848078127222
ONEWEB-0664             
1 55824U 23029AE  25276.22442810  .00000040  00000+0  65378-4 0  9991
2 55824  87.9242 325.7430 0001687  86.6165 273.5161 13.20772490127220
ONEWEB-0665             
1 55825U 23029AF  25276.18473717  .00000204  00000+0  51598-3 0  9997
2 55825  87.9072 340.9199 0001616 104.5553 255.5756 13.14503976125644
ONEWEB-0666             
1 55826U 23029AG  25276.06659611  .00000089  00000+0  18804-3 0  9998
2 55826  87.9245 325.7620 0002679  93.7395 266.4044 13.20773699127214
ONEWEB-0667             
1 55827U 23029AH  25276.21179843  .00000066  00000+0  13078-3 0  9993
2 55827  87.9246 325.6616 0001736  97.7949 262.3381 13.20773555127223
ONEWEB-0669             
1 55828U 23029AJ  25276.20707898  .00000062  00000+0  12176-3 0  9994
2 55828  87.9244 325.7023 0002153  78.0806 282.0568 13.20771436127225
ONEWEB-0670             
1 55829U 23029AK  25276.23864180  .00000247  00000+0  63297-3 0  9991
2 55829  87.9069 340.9289 0001531  92.8601 267.2704 13.14501789125679
ONEWEB-0671             
1 55830U 23029AL  25276.27201413  .00000092  00000+0  19741-3 0  9994
2 55830  87.9271 356.0843 0001707 100.3484 259.7842 13.19725976125017
ONEWEB-0672             
1 55831U 23029AM  25276.20233730  .00000027  00000+0  33888-4 0  9992
2 55831  87.9237 325.6848 0002183  93.3501 266.7882 13.20771365127229
ONEWEB-0673             
1 55832U 23029AN  25276.24832223  .00000103  00000+0  22405-3 0  9996
2 55832  87.9291 356.0581 0001843 106.8347 253.2988 13.19727109125010
